GLOBALSTAR M094         
1 39074U 13005C   26005.17531914 -.00000067  00000+0  20582-3 0  9999
2 39074  51.9972 287.1250 0000827  42.0360 318.0570 12.62265696597881
GLOBALSTAR M096         
1 39075U 13005D   26005.34668076 -.00000089  00000+0  80487-4 0  9994
2 39075  52.0100 335.2728 0000491  25.4283 334.6608 12.62269746596827
GLOBALSTAR M078         
1 39076U 13005E   26005.47899921 -.00000035  00000+0  38096-3 0  9993
2 39076  51.9884  59.1062 0000529 243.6789 116.4023 12.62271757595466
GLOBALSTAR M095         
1 39077U 13005F   26005.50533735 -.00000075  00000+0  15876-3 0  9991
2 39077  52.0098  56.3993 0000042  15.5618 344.5251 12.62267633595325
GLOBALSTAR M087         
1 52888U 22064A   26005.51845888 -.00000105  00000+0 -52702-5 0  9993
2 52888  51.9970 197.6905 0000989  73.2594 286.8381 12.62262334170596
